[{"OBJECT_NAME":"COLIBRI-S (RS67S)","OBJECT_ID":"2024-199M","EPOCH":"2026-03-04T02:36:09.127008","MEAN_MOTION":15.43139547,"ECCENTRICITY":0.0007975,"INCLINATION":97.3168,"RA_OF_ASC_NODE":296.2439,"ARG_OF_PERICENTER":309.8817,"MEAN_ANOMALY":50.1729,"EPHEMERIS_TYPE":0,"CLASSIFICATION_TYPE":"U","NORAD_CAT_ID":61746,"ELEMENT_SET_NO":999,"REV_AT_EPOCH":12118,"BSTAR":0.00072384,"MEAN_MOTION_DOT":0.00032087,"MEAN_MOTION_DDOT":0},{"OBJECT_NAME":"HORS 3 (RS81S)","OBJECT_ID":"2024-199U","EPOCH":"2026-03-04T03:39:26.456256","MEAN_MOTION":15.47927648,"ECCENTRICITY":0.0006143,"INCLINATION":97.3137,"RA_OF_ASC_NODE":297.3558,"ARG_OF_PERICENTER":317.6313,"MEAN_ANOMALY":42.4463,"EPHEMERIS_TYPE":0,"CLASSIFICATION_TYPE":"U","NORAD_CAT_ID":61753,"ELEMENT_SET_NO":999,"REV_AT_EPOCH":12127,"BSTAR":0.00085541,"MEAN_MOTION_DOT":0.00044718,"MEAN_MOTION_DDOT":0},{"OBJECT_NAME":"HORS 4 (RS82S)","OBJECT_ID":"2024-199V","EPOCH":"2026-03-04T03:58:25.055328","MEAN_MOTION":15.50650249,"ECCENTRICITY":0.0005828,"INCLINATION":97.3114,"RA_OF_ASC_NODE":298.0448,"ARG_OF_PERICENTER":314.6331,"MEAN_ANOMALY":45.4445,"EPHEMERIS_TYPE":0,"CLASSIFICATION_TYPE":"U","NORAD_CAT_ID":61754,"ELEMENT_SET_NO":999,"REV_AT_EPOCH":12132,"BSTAR":0.00093377,"MEAN_MOTION_DOT":0.00053765,"MEAN_MOTION_DDOT":0},{"OBJECT_NAME":"HORIZON (RS59S)","OBJECT_ID":"2024-199Y","EPOCH":"2026-03-04T03:14:54.074976","MEAN_MOTION":15.68520596,"ECCENTRICITY":0.0003224,"INCLINATION":97.3084,"RA_OF_ASC_NODE":301.6977,"ARG_OF_PERICENTER":288.9975,"MEAN_ANOMALY":71.0937,"EPHEMERIS_TYPE":0,"CLASSIFICATION_TYPE":"U","NORAD_CAT_ID":61757,"ELEMENT_SET_NO":999,"REV_AT_EPOCH":12155,"BSTAR":0.0014895,"MEAN_MOTION_DOT":0.00171304,"MEAN_MOTION_DDOT":0},{"OBJECT_NAME":"ARCTICSAT 1 (RS74S)","OBJECT_ID":"2024-199AD","EPOCH":"2026-03-04T01:39:32.089824","MEAN_MOTION":15.64425417,"ECCENTRICITY":0.0003614,"INCLINATION":97.3102,"RA_OF_ASC_NODE":301.186,"ARG_OF_PERICENTER":286.3056,"MEAN_ANOMALY":73.7805,"EPHEMERIS_TYPE":0,"CLASSIFICATION_TYPE":"U","NORAD_CAT_ID":61762,"ELEMENT_SET_NO":999,"REV_AT_EPOCH":12151,"BSTAR":0.0013495,"MEAN_MOTION_DOT":0.00131095,"MEAN_MOTION_DDOT":0},{"OBJECT_NAME":"SIT-2086","OBJECT_ID":"2024-199AF","EPOCH":"2026-03-04T03:51:43.607232","MEAN_MOTION":15.47317755,"ECCENTRICITY":0.0006259,"INCLINATION":97.3133,"RA_OF_ASC_NODE":298.1015,"ARG_OF_PERICENTER":296.2951,"MEAN_ANOMALY":63.7656,"EPHEMERIS_TYPE":0,"CLASSIFICATION_TYPE":"U","NORAD_CAT_ID":61764,"ELEMENT_SET_NO":999,"REV_AT_EPOCH":11816,"BSTAR":0.00064621,"MEAN_MOTION_DOT":0.00033006,"MEAN_MOTION_DDOT":0},{"OBJECT_NAME":"RUZAEVKA 390 (RS44S)","OBJECT_ID":"2024-199AH","EPOCH":"2026-03-04T03:01:41.151936","MEAN_MOTION":16.03272199,"ECCENTRICITY":0.00019,"INCLINATION":97.2855,"RA_OF_ASC_NODE":305.0371,"ARG_OF_PERICENTER":163.4709,"MEAN_ANOMALY":196.6633,"EPHEMERIS_TYPE":0,"CLASSIFICATION_TYPE":"U","NORAD_CAT_ID":61766,"ELEMENT_SET_NO":999,"REV_AT_EPOCH":11863,"BSTAR":0.0019003,"MEAN_MOTION_DOT":0.01150025,"MEAN_MOTION_DDOT":0.0007217},{"OBJECT_NAME":"HYPERVIEW 1G (RS66S)","OBJECT_ID":"2024-199AP","EPOCH":"2026-03-04T02:28:13.946016","MEAN_MOTION":15.5709279,"ECCENTRICITY":0.0007,"INCLINATION":97.3094,"RA_OF_ASC_NODE":299.0333,"ARG_OF_PERICENTER":311.3148,"MEAN_ANOMALY":48.7505,"EPHEMERIS_TYPE":0,"CLASSIFICATION_TYPE":"U","NORAD_CAT_ID":61772,"ELEMENT_SET_NO":999,"REV_AT_EPOCH":11823,"BSTAR":0.0012328,"MEAN_MOTION_DOT":0.00090113,"MEAN_MOTION_DDOT":0},{"OBJECT_NAME":"ALTAIR (RS65S)","OBJECT_ID":"2024-199AW","EPOCH":"2026-03-04T03:50:48.958368","MEAN_MOTION":15.34856435,"ECCENTRICITY":0.0012609,"INCLINATION":97.3189,"RA_OF_ASC_NODE":293.2612,"ARG_OF_PERICENTER":330.0195,"MEAN_ANOMALY":30.0326,"EPHEMERIS_TYPE":0,"CLASSIFICATION_TYPE":"U","NORAD_CAT_ID":61779,"ELEMENT_SET_NO":999,"REV_AT_EPOCH":12099,"BSTAR":0.00053863,"MEAN_MOTION_DOT":0.00018193,"MEAN_MOTION_DDOT":0},{"OBJECT_NAME":"ASRTU-1 (AO-123)","OBJECT_ID":"2024-199AY","EPOCH":"2026-03-04T03:16:39.881280","MEAN_MOTION":15.33928531,"ECCENTRICITY":0.0013356,"INCLINATION":97.3163,"RA_OF_ASC_NODE":292.7745,"ARG_OF_PERICENTER":331.9213,"MEAN_ANOMALY":28.1308,"EPHEMERIS_TYPE":0,"CLASSIFICATION_TYPE":"U","NORAD_CAT_ID":61781,"ELEMENT_SET_NO":999,"REV_AT_EPOCH":11781,"BSTAR":0.00043432,"MEAN_MOTION_DOT":0.00014226,"MEAN_MOTION_DDOT":0},{"OBJECT_NAME":"TUSUR GO (RS78S)","OBJECT_ID":"2024-199AZ","EPOCH":"2026-03-04T03:36:01.890432","MEAN_MOTION":15.68927968,"ECCENTRICITY":0.0004289,"INCLINATION":97.3039,"RA_OF_ASC_NODE":300.7229,"ARG_OF_PERICENTER":308.5512,"MEAN_ANOMALY":51.5365,"EPHEMERIS_TYPE":0,"CLASSIFICATION_TYPE":"U","NORAD_CAT_ID":61782,"ELEMENT_SET_NO":999,"REV_AT_EPOCH":11835,"BSTAR":0.001601,"MEAN_MOTION_DOT":0.00187616,"MEAN_MOTION_DDOT":0},{"OBJECT_NAME":"SAMSAT-IONOSPHERE (RS75S)","OBJECT_ID":"2024-199BB","EPOCH":"2026-03-04T02:47:05.011008","MEAN_MOTION":15.49014292,"ECCENTRICITY":0.000914,"INCLINATION":97.3126,"RA_OF_ASC_NODE":297.1033,"ARG_OF_PERICENTER":317.8113,"MEAN_ANOMALY":42.2434,"EPHEMERIS_TYPE":0,"CLASSIFICATION_TYPE":"U","NORAD_CAT_ID":61784,"ELEMENT_SET_NO":999,"REV_AT_EPOCH":12125,"BSTAR":0.00096894,"MEAN_MOTION_DOT":0.00052718,"MEAN_MOTION_DDOT":0},{"OBJECT_NAME":"RTU MIREA 1 (RS51S)","OBJECT_ID":"2024-199BC","EPOCH":"2026-03-04T02:53:51.638784","MEAN_MOTION":15.50866988,"ECCENTRICITY":0.0008874,"INCLINATION":97.3122,"RA_OF_ASC_NODE":297.537,"ARG_OF_PERICENTER":313.7664,"MEAN_ANOMALY":46.2853,"EPHEMERIS_TYPE":0,"CLASSIFICATION_TYPE":"U","NORAD_CAT_ID":61785,"ELEMENT_SET_NO":999,"REV_AT_EPOCH":11813,"BSTAR":0.0010964,"MEAN_MOTION_DOT":0.00063771,"MEAN_MOTION_DDOT":0},{"OBJECT_NAME":"TEVEL2-4","OBJECT_ID":"2025-052D","EPOCH":"2026-03-03T22:36:08.025120","MEAN_MOTION":15.30629564,"ECCENTRICITY":0.0004512,"INCLINATION":97.4032,"RA_OF_ASC_NODE":319.386,"ARG_OF_PERICENTER":106.5122,"MEAN_ANOMALY":253.6615,"EPHEMERIS_TYPE":0,"CLASSIFICATION_TYPE":"U","NORAD_CAT_ID":63213,"ELEMENT_SET_NO":999,"REV_AT_EPOCH":5399,"BSTAR":0.00097341,"MEAN_MOTION_DOT":0.00028831,"MEAN_MOTION_DDOT":0},{"OBJECT_NAME":"TEVEL2-5","OBJECT_ID":"2025-052E","EPOCH":"2026-03-04T03:33:42.321600","MEAN_MOTION":15.30526069,"ECCENTRICITY":0.0004481,"INCLINATION":97.4033,"RA_OF_ASC_NODE":319.5661,"ARG_OF_PERICENTER":105.8513,"MEAN_ANOMALY":254.3222,"EPHEMERIS_TYPE":0,"CLASSIFICATION_TYPE":"U","NORAD_CAT_ID":63214,"ELEMENT_SET_NO":999,"REV_AT_EPOCH":5402,"BSTAR":0.00097911,"MEAN_MOTION_DOT":0.00028908,"MEAN_MOTION_DDOT":0},{"OBJECT_NAME":"TEVEL2-6","OBJECT_ID":"2025-052F","EPOCH":"2026-03-04T03:47:38.348736","MEAN_MOTION":15.30484993,"ECCENTRICITY":0.0004594,"INCLINATION":97.4034,"RA_OF_ASC_NODE":319.5609,"ARG_OF_PERICENTER":107.4216,"MEAN_ANOMALY":252.7527,"EPHEMERIS_TYPE":0,"CLASSIFICATION_TYPE":"U","NORAD_CAT_ID":63215,"ELEMENT_SET_NO":999,"REV_AT_EPOCH":5402,"BSTAR":0.00096225,"MEAN_MOTION_DOT":0.00028371,"MEAN_MOTION_DDOT":0}]
