COLIBRI-S (RS67S)       
1 61746U 24199M   26063.10843897  .00032087  00000+0  72384-3 0  9992
2 61746  97.3168 296.2439 0007975 309.8817  50.1729 15.43139547121188
HORS 3 (RS81S)          
1 61753U 24199U   26063.15238954  .00044718  00000+0  85541-3 0  9990
2 61753  97.3137 297.3558 0006143 317.6313  42.4463 15.47927648121270
HORS 4 (RS82S)          
1 61754U 24199V   26063.16556777  .00053765  00000+0  93377-3 0  9996
2 61754  97.3114 298.0448 0005828 314.6331  45.4445 15.50650249121321
HORIZON (RS59S)         
1 61757U 24199Y   26063.13534809  .00171304  00000+0  14895-2 0  9995
2 61757  97.3084 301.6977 0003224 288.9975  71.0937 15.68520596121559
ARCTICSAT 1 (RS74S)     
1 61762U 24199AD  26063.06912141  .00131095  00000+0  13495-2 0  9990
2 61762  97.3102 301.1860 0003614 286.3056  73.7805 15.64425417121518
SIT-2086                
1 61764U 24199AF  26063.16092138  .00033006  00000+0  64621-3 0  9999
2 61764  97.3133 298.1015 0006259 296.2951  63.7656 15.47317755118169
RUZAEVKA 390 (RS44S)    
1 61766U 24199AH  26063.12617074  .01150025  72170-3  19003-2 0  9995
2 61766  97.2855 305.0371 0001900 163.4709 196.6633 16.03272199118636
HYPERVIEW 1G (RS66S)    
1 61772U 24199AP  26063.10293919  .00090113  00000+0  12328-2 0  9990
2 61772  97.3094 299.0333 0007000 311.3148  48.7505 15.57092790118233
ALTAIR (RS65S)          
1 61779U 24199AW  26063.16028887  .00018193  00000+0  53863-3 0  9991
2 61779  97.3189 293.2612 0012609 330.0195  30.0326 15.34856435120992
ASRTU-1 (AO-123)        
1 61781U 24199AY  26063.13657270  .00014226  00000+0  43432-3 0  9999
2 61781  97.3163 292.7745 0013356 331.9213  28.1308 15.33928531117810
TUSUR GO (RS78S)        
1 61782U 24199AZ  26063.15002188  .00187616  00000+0  16010-2 0  9999
2 61782  97.3039 300.7229 0004289 308.5512  51.5365 15.68927968118351
SAMSAT-IONOSPHERE (RS7*)
1 61784U 24199BB  26063.11603022  .00052718  00000+0  96894-3 0  9994
2 61784  97.3126 297.1033 0009140 317.8113  42.2434 15.49014292121256
RTU MIREA 1 (RS51S)     
1 61785U 24199BC  26063.12073656  .00063771  00000+0  10964-2 0  9994
2 61785  97.3122 297.5370 0008874 313.7664  46.2853 15.50866988118131
TEVEL2-4                
1 63213U 25052D   26062.94175955  .00028831  00000+0  97341-3 0  9998
2 63213  97.4032 319.3860 0004512 106.5122 253.6615 15.30629564 53996
TEVEL2-5                
1 63214U 25052E   26063.14840650  .00028908  00000+0  97911-3 0  9991
2 63214  97.4033 319.5661 0004481 105.8513 254.3222 15.30526069 54023
TEVEL2-6                
1 63215U 25052F   26063.15808274  .00028371  00000+0  96225-3 0  9990
2 63215  97.4034 319.5609 0004594 107.4216 252.7527 15.30484993 54029
